start=new Date('2022-06-16T00:00:00.000Z').valueOf();
sats=[{"RCS_SIZE":"LARGE","TLE_LINE1":"1 47350U 21005B   22166.12349348 -.00000571  00000-0 -19439-4 0  9993","APOAPSIS":"548.729","MEAN_MOTION_DOT":"-0.00000571","MEAN_MOTION":"15.06394152","COUNTRY_CODE":"US","MEAN_ANOMALY":"295.5798","MEAN_MOTION_DDOT":"0.0000000000000","NORAD_CAT_ID":"47350","SITE":"AFETR","ELEMENT_SET_NO":"999","GP_ID":"206214962","SEMIMAJOR_AXIS":"6925.366","EPHEMERIS_TYPE":"0","TLE_LINE2":"2 47350  53.0582  62.9139 0002162  64.5414 295.5798 15.06394152 78195","TIME_SYSTEM":"UTC","ARG_OF_PERICENTER":"64.5414","REF_FRAME":"TEME","CENTER_NAME":"EARTH","OBJECT_NAME":"STARLINK-2011","RA_OF_ASC_NODE":"62.9139","CLASSIFICATION_TYPE":"U","INCLINATION":"53.0582","MEAN_ELEMENT_THEORY":"SGP4","DECAY_DATE":null,"LAUNCH_DATE":"2021-01-20","BSTAR":"-0.00001943900000","PERIOD":"95.593","OBJECT_ID":"2021-005B","FILE":"3496954","EPOCH":"2022-06-15T02:57:49.836672","REV_AT_EPOCH":"7819","OBJECT_TYPE":"PAYLOAD","ECCENTRICITY":"0.00021620","PERIAPSIS":"545.734"},{"INCLINATION":"53.0565","MEAN_ELEMENT_THEORY":"SGP4","DECAY_DATE":null,"LAUNCH_DATE":"2021-01-20","BSTAR":"-0.00002517400000","REF_FRAME":"TEME","ARG_OF_PERICENTER":"71.8100","OBJECT_NAME":"STARLINK-2017","CENTER_NAME":"EARTH","RA_OF_ASC_NODE":"19.4816","CLASSIFICATION_TYPE":"U","PERIAPSIS":"546.200","PERIOD":"95.592","REV_AT_EPOCH":"7819","EPOCH":"2022-06-15T21:09:51.871968","FILE":"3496999","OBJECT_ID":"2021-005C","ECCENTRICITY":"0.00014740","OBJECT_TYPE":"PAYLOAD","RCS_SIZE":"LARGE","TLE_LINE1":"1 47351U 21005C   22166.88185037 -.00000656  00000-0 -25174-4 0  9997","MEAN_MOTION":"15.06397609","MEAN_MOTION_DOT":"-0.00000656","APOAPSIS":"548.242","MEAN_MOTION_DDOT":"0.0000000000000","COUNTRY_CODE":"US","MEAN_ANOMALY":"288.3049","SEMIMAJOR_AXIS":"6925.356","EPHEMERIS_TYPE":"0","TLE_LINE2":"2 47351  53.0565  19.4816 0001474  71.8100 288.3049 15.06397609 78193","TIME_SYSTEM":"UTC","NORAD_CAT_ID":"47351","SITE":"AFETR","ELEMENT_SET_NO":"999","GP_ID":"206237618"},{"NORAD_CAT_ID":"47352","SITE":"AFETR","ELEMENT_SET_NO":"999","GP_ID":"206237869","SEMIMAJOR_AXIS":"6925.364","EPHEMERIS_TYPE":"0","TLE_LINE2":"2 47352  53.0548  60.0203 0001795  68.9648 291.1533 15.06394834 77610","TIME_SYSTEM":"UTC","RCS_SIZE":"LARGE","TLE_LINE1":"1 47352U 21005D   22166.76853255 -.00000588  00000-0 -20596-4 0  9996","MEAN_MOTION_DOT":"-0.00000588","APOAPSIS":"548.472","MEAN_MOTION":"15.06394834","COUNTRY_CODE":"US","MEAN_ANOMALY":"291.1533","MEAN_MOTION_DDOT":"0.0000000000000","PERIOD":"95.592","OBJECT_ID":"2021-005D","FILE":"3496999","REV_AT_EPOCH":"7761","EPOCH":"2022-06-15T18:26:41.212320","OBJECT_TYPE":"PAYLOAD","ECCENTRICITY":"0.00017950","PERIAPSIS":"545.986","ARG_OF_PERICENTER":"68.9648","REF_FRAME":"TEME","CENTER_NAME":"EARTH","OBJECT_NAME":"STARLINK-2034","RA_OF_ASC_NODE":"60.0203","CLASSIFICATION_TYPE":"U","INCLINATION":"53.0548","MEAN_ELEMENT_THEORY":"SGP4","DECAY_DATE":null,"LAUNCH_DATE":"2021-01-20","BSTAR":"-0.00002059600000"},{"SEMIMAJOR_AXIS":"6925.359","EPHEMERIS_TYPE":"0","TIME_SYSTEM":"UTC","TLE_LINE2":"2 47353  53.0556   5.5172 0001579  55.2603 304.8534 15.06396692 78370","NORAD_CAT_ID":"47353","SITE":"AFETR","ELEMENT_SET_NO":"999","GP_ID":"206236617","RCS_SIZE":"LARGE","TLE_LINE1":"1 47353U 21005E   22166.65749744 -.00002284  00000-0 -13452-3 0  9999","APOAPSIS":"548.317","MEAN_MOTION_DOT":"-0.00002284","MEAN_MOTION":"15.06396692","COUNTRY_CODE":"US","MEAN_ANOMALY":"304.8534","MEAN_MOTION_DDOT":"0.0000000000000","PERIAPSIS":"546.130","PERIOD":"95.592","FILE":"3496999","OBJECT_ID":"2021-005E","REV_AT_EPOCH":"7837","EPOCH":"2022-06-15T15:46:47.778816","ECCENTRICITY":"0.00015790","OBJECT_TYPE":"PAYLOAD","INCLINATION":"53.0556","MEAN_ELEMENT_THEORY":"SGP4","DECAY_DATE":null,"LAUNCH_DATE":"2021-01-20","BSTAR":"-0.00013452000000","ARG_OF_PERICENTER":"55.2603","REF_FRAME":"TEME","CENTER_NAME":"EARTH","OBJECT_NAME":"STARLINK-2045","RA_OF_ASC_NODE":"5.5172","CLASSIFICATION_TYPE":"U"},{"ARG_OF_PERICENTER":"65.6551","REF_FRAME":"TEME","CENTER_NAME":"EARTH","OBJECT_NAME":"STARLINK-2046","RA_OF_ASC_NODE":"24.5530","CLASSIFICATION_TYPE":"U","INCLINATION":"53.0557","MEAN_ELEMENT_THEORY":"SGP4","DECAY_DATE":null,"BSTAR":"-0.00002590000000","LAUNCH_DATE":"2021-01-20","PERIOD":"95.593","OBJECT_ID":"2021-005F","FILE":"3496873","REV_AT_EPOCH":"7878","EPOCH":"2022-06-15T20:51:59.376672","OBJECT_TYPE":"PAYLOAD","ECCENTRICITY":"0.00017010","PERIAPSIS":"546.055","RCS_SIZE":"LARGE","TLE_LINE1":"1 47354U 21005F   22166.86943723 -.00000667  00000-0 -25900-4 0  9991","MEAN_MOTION_DOT":"-0.00000667","APOAPSIS":"548.411","MEAN_MOTION":"15.06393723","COUNTRY_CODE":"US","MEAN_ANOMALY":"294.4616","MEAN_MOTION_DDOT":"0.0000000000000","NORAD_CAT_ID":"47354","SITE":"AFETR","ELEMENT_SET_NO":"999","GP_ID":"206212447","SEMIMAJOR_AXIS":"6925.368","EPHEMERIS_TYPE":"0","TIME_SYSTEM":"UTC","TLE_LINE2":"2 47354  53.0557  24.5530 0001701  65.6551 294.4616 15.06393723 78787"},{"NORAD_CAT_ID":"47355","SITE":"AFETR","GP_ID":"206237119","ELEMENT_SET_NO":"999","EPHEMERIS_TYPE":"0","SEMIMAJOR_AXIS":"6925.383","TIME_SYSTEM":"UTC","TLE_LINE2":"2 47355  53.0537   9.7571 0001434  68.2207 291.8934 15.06388763 78328","TLE_LINE1":"1 47355U 21005G   22166.82474887 -.00001159  00000-0 -58935-4 0  9999","RCS_SIZE":"LARGE","MEAN_MOTION_DDOT":"0.0000000000000","COUNTRY_CODE":"US","MEAN_ANOMALY":"291.8934","MEAN_MOTION":"15.06388763","MEAN_MOTION_DOT":"-0.00001159","APOAPSIS":"548.241","PERIOD":"95.593","ECCENTRICITY":"0.00014340","OBJECT_TYPE":"PAYLOAD","REV_AT_EPOCH":"7832","EPOCH":"2022-06-15T19:47:38.302368","OBJECT_ID":"2021-005G","FILE":"3496999","PERIAPSIS":"546.255","OBJECT_NAME":"STARLINK-2047","CENTER_NAME":"EARTH","REF_FRAME":"TEME","ARG_OF_PERICENTER":"68.2207","CLASSIFICATION_TYPE":"U","RA_OF_ASC_NODE":"9.7571","MEAN_ELEMENT_THEORY":"SGP4","INCLINATION":"53.0537","LAUNCH_DATE":"2021-01-20","BSTAR":"-0.00005893500000","DECAY_DATE":null},{"APOAPSIS":"548.608","MEAN_MOTION_DOT":"0.00005992","MEAN_MOTION":"15.06363881","MEAN_ANOMALY":"278.9581","COUNTRY_CODE":"US","MEAN_MOTION_DDOT":"0.0000000000000","RCS_SIZE":"LARGE","TLE_LINE1":"1 47356U 21005H   22166.87082413  .00005992  00000-0  42123-3 0  9993","TLE_LINE2":"2 47356  53.0558  29.5568 0001854  81.1618 278.9581 15.06363881 78052","TIME_SYSTEM":"UTC","SEMIMAJOR_AXIS":"6925.459","EPHEMERIS_TYPE":"0","ELEMENT_SET_NO":"999","GP_ID":"206237370","SITE":"AFETR","NORAD_CAT_ID":"47356","DECAY_DATE":null,"LAUNCH_DATE":"2021-01-20","BSTAR":"0.00042123000000","INCLINATION":"53.0558","MEAN_ELEMENT_THEORY":"SGP4","RA_OF_ASC_NODE":"29.5568","CLASSIFICATION_TYPE":"U","ARG_OF_PERICENTER":"81.1618","REF_FRAME":"TEME","CENTER_NAME":"EARTH","OBJECT_NAME":"STARLINK-2049","PERIAPSIS":"546.040","FILE":"3496999","OBJECT_ID":"2021-005H","REV_AT_EPOCH":"7805","EPOCH":"2022-06-15T20:53:59.204832","OBJECT_TYPE":"PAYLOAD","ECCENTRICITY":"0.00018540","PERIOD":"95.594"},{"ECCENTRICITY":"0.00016680","OBJECT_TYPE":"PAYLOAD","EPOCH":"2022-06-15T21:05:55.205088","REV_AT_EPOCH":"7763","FILE":"3496999","OBJECT_ID":"2021-005J","PERIOD":"95.592","PERIAPSIS":"546.065","CLASSIFICATION_TYPE":"U","RA_OF_ASC_NODE":"59.5077","OBJECT_NAME":"STARLINK-2050","CENTER_NAME":"EARTH","REF_FRAME":"TEME","ARG_OF_PERICENTER":"61.1286","BSTAR":"-0.00002639100000","LAUNCH_DATE":"2021-01-20","DECAY_DATE":null,"MEAN_ELEMENT_THEORY":"SGP4","INCLINATION":"53.0564","GP_ID":"206236118","ELEMENT_SET_NO":"999","SITE":"AFETR","NORAD_CAT_ID":"47357","TIME_SYSTEM":"UTC","TLE_LINE2":"2 47357  53.0564  59.5077 0001668  61.1286 298.9871 15.06397725 77631","EPHEMERIS_TYPE":"0","SEMIMAJOR_AXIS":"6925.356","MEAN_MOTION_DDOT":"0.0000000000000","COUNTRY_CODE":"US","MEAN_ANOMALY":"298.9871","MEAN_MOTION":"15.06397725","APOAPSIS":"548.376","MEAN_MOTION_DOT":"-0.00000675","TLE_LINE1":"1 47357U 21005J   22166.87911117 -.00000675  00000-0 -26391-4 0  9991","RCS_SIZE":"LARGE"},{"DECAY_DATE":null,"BSTAR":"0.00014488000000","LAUNCH_DATE":"2021-01-20","INCLINATION":"53.0559","MEAN_ELEMENT_THEORY":"SGP4","RA_OF_ASC_NODE":"29.4982","CLASSIFICATION_TYPE":"U","ARG_OF_PERICENTER":"72.8544","REF_FRAME":"TEME","CENTER_NAME":"EARTH","OBJECT_NAME":"STARLINK-2055","PERIAPSIS":"546.192","FILE":"3496999","OBJECT_ID":"2021-005K","REV_AT_EPOCH":"7805","EPOCH":"2022-06-15T21:08:32.726976","OBJECT_TYPE":"PAYLOAD","ECCENTRICITY":"0.00014480","PERIOD":"95.592","MEAN_MOTION_DOT":"0.00001877","APOAPSIS":"548.198","MEAN_MOTION":"15.06406034","COUNTRY_CODE":"US","MEAN_ANOMALY":"287.2603","MEAN_MOTION_DDOT":"0.0000000000000","RCS_SIZE":"LARGE","TLE_LINE1":"1 47358U 21005K   22166.88093434  .00001877  00000-0  14488-3 0  9992","TLE_LINE2":"2 47358  53.0559  29.4982 0001448  72.8544 287.2603 15.06406034 78054","TIME_SYSTEM":"UTC","SEMIMAJOR_AXIS":"6925.330","EPHEMERIS_TYPE":"0","ELEMENT_SET_NO":"999","GP_ID":"206236368","NORAD_CAT_ID":"47358","SITE":"AFETR"},{"PERIOD":"95.592","OBJECT_TYPE":"PAYLOAD","ECCENTRICITY":"0.00017400","FILE":"3496999","OBJECT_ID":"2021-005L","REV_AT_EPOCH":"7769","EPOCH":"2022-06-15T19:49:37.260480","PERIAPSIS":"546.002","CENTER_NAME":"EARTH","OBJECT_NAME":"STARLINK-2069","ARG_OF_PERICENTER":"62.9636","REF_FRAME":"TEME","CLASSIFICATION_TYPE":"U","RA_OF_ASC_NODE":"54.7452","MEAN_ELEMENT_THEORY":"SGP4","INCLINATION":"53.0557","BSTAR":"0.00015640000000","LAUNCH_DATE":"2021-01-20","DECAY_DATE":null,"NORAD_CAT_ID":"47359","SITE":"AFETR","GP_ID":"206237619","ELEMENT_SET_NO":"999","EPHEMERIS_TYPE":"0","SEMIMAJOR_AXIS":"6925.342","TIME_SYSTEM":"UTC","TLE_LINE2":"2 47359  53.0557  54.7452 0001740  62.9636 297.1531 15.06402265 77694","TLE_LINE1":"1 47359U 21005L   22166.82612570  .00002049  00000-0  15640-3 0  9998","RCS_SIZE":"LARGE","COUNTRY_CODE":"US","MEAN_ANOMALY":"297.1531","MEAN_MOTION_DDOT":"0.0000000000000","MEAN_MOTION_DOT":"0.00002049","APOAPSIS":"548.412","MEAN_MOTION":"15.06402265"}];
